[{"OBJECT_NAME":"GPS BIIR-2  (PRN 13)","OBJECT_ID":"1997-035A","EPOCH":"2026-03-04T11:59:51.528480","MEAN_MOTION":2.00563962,"ECCENTRICITY":0.00979481,"INCLINATION":55.9354,"RA_OF_ASC_NODE":102.6673,"ARG_OF_PERICENTER":56.2637,"MEAN_ANOMALY":304.7448,"EPHEMERIS_TYPE":0,"CLASSIFICATION_TYPE":"U","NORAD_CAT_ID":24876,"ELEMENT_SET_NO":999,"REV_AT_EPOCH":20985,"BSTAR":0,"MEAN_MOTION_DOT":1.7e-7,"MEAN_MOTION_DDOT":0},{"OBJECT_NAME":"GPS BIIR-5  (PRN 22)","OBJECT_ID":"2000-040A","EPOCH":"2026-03-04T19:55:28.430688","MEAN_MOTION":2.00568933,"ECCENTRICITY":0.0122689,"INCLINATION":54.8755,"RA_OF_ASC_NODE":219.3047,"ARG_OF_PERICENTER":302.5325,"MEAN_ANOMALY":230.1354,"EPHEMERIS_TYPE":0,"CLASSIFICATION_TYPE":"U","NORAD_CAT_ID":26407,"ELEMENT_SET_NO":999,"REV_AT_EPOCH":18785,"BSTAR":0,"MEAN_MOTION_DOT":4.0e-8,"MEAN_MOTION_DDOT":0},{"OBJECT_NAME":"GPS BIIR-8  (PRN 16)","OBJECT_ID":"2003-005A","EPOCH":"2026-03-04T10:01:39.031968","MEAN_MOTION":2.00566272,"ECCENTRICITY":0.01487328,"INCLINATION":54.9073,"RA_OF_ASC_NODE":219.129,"ARG_OF_PERICENTER":52.7169,"MEAN_ANOMALY":318.0933,"EPHEMERIS_TYPE":0,"CLASSIFICATION_TYPE":"U","NORAD_CAT_ID":27663,"ELEMENT_SET_NO":999,"REV_AT_EPOCH":16921,"BSTAR":0,"MEAN_MOTION_DOT":0,"MEAN_MOTION_DDOT":0},{"OBJECT_NAME":"GPS BIIR-11 (PRN 19)","OBJECT_ID":"2004-009A","EPOCH":"2026-03-04T10:16:30.113184","MEAN_MOTION":2.00558098,"ECCENTRICITY":0.01109612,"INCLINATION":54.9157,"RA_OF_ASC_NODE":279.9188,"ARG_OF_PERICENTER":169.067,"MEAN_ANOMALY":5.0968,"EPHEMERIS_TYPE":0,"CLASSIFICATION_TYPE":"U","NORAD_CAT_ID":28190,"ELEMENT_SET_NO":999,"REV_AT_EPOCH":16084,"BSTAR":0,"MEAN_MOTION_DOT":-2.0e-7,"MEAN_MOTION_DDOT":0},{"OBJECT_NAME":"GPS BIIR-13 (PRN 02)","OBJECT_ID":"2004-045A","EPOCH":"2026-03-04T14:13:35.527584","MEAN_MOTION":2.00573414,"ECCENTRICITY":0.0170845,"INCLINATION":55.1946,"RA_OF_ASC_NODE":329.1116,"ARG_OF_PERICENTER":312.8352,"MEAN_ANOMALY":43.6266,"EPHEMERIS_TYPE":0,"CLASSIFICATION_TYPE":"U","NORAD_CAT_ID":28474,"ELEMENT_SET_NO":999,"REV_AT_EPOCH":15632,"BSTAR":0,"MEAN_MOTION_DOT":-9.3e-7,"MEAN_MOTION_DDOT":0},{"OBJECT_NAME":"GPS BIIRM-1 (PRN 17)","OBJECT_ID":"2005-038A","EPOCH":"2026-03-04T15:53:49.820352","MEAN_MOTION":2.00572995,"ECCENTRICITY":0.0128798,"INCLINATION":54.9628,"RA_OF_ASC_NODE":277.3946,"ARG_OF_PERICENTER":295.3469,"MEAN_ANOMALY":71.7592,"EPHEMERIS_TYPE":0,"CLASSIFICATION_TYPE":"U","NORAD_CAT_ID":28874,"ELEMENT_SET_NO":999,"REV_AT_EPOCH":14974,"BSTAR":0,"MEAN_MOTION_DOT":-1.8e-7,"MEAN_MOTION_DDOT":0},{"OBJECT_NAME":"GPS BIIRM-2 (PRN 31)","OBJECT_ID":"2006-042A","EPOCH":"2026-03-04T07:30:28.850688","MEAN_MOTION":2.00575351,"ECCENTRICITY":0.01067343,"INCLINATION":54.6981,"RA_OF_ASC_NODE":155.5038,"ARG_OF_PERICENTER":52.8848,"MEAN_ANOMALY":318.8123,"EPHEMERIS_TYPE":0,"CLASSIFICATION_TYPE":"U","NORAD_CAT_ID":29486,"ELEMENT_SET_NO":999,"REV_AT_EPOCH":14229,"BSTAR":0,"MEAN_MOTION_DOT":5.0e-8,"MEAN_MOTION_DDOT":0},{"OBJECT_NAME":"GPS BIIRM-3 (PRN 12)","OBJECT_ID":"2006-052A","EPOCH":"2026-03-03T17:09:51.857856","MEAN_MOTION":2.00551577,"ECCENTRICITY":0.008788,"INCLINATION":54.9574,"RA_OF_ASC_NODE":218.1844,"ARG_OF_PERICENTER":89.3488,"MEAN_ANOMALY":271.6075,"EPHEMERIS_TYPE":0,"CLASSIFICATION_TYPE":"U","NORAD_CAT_ID":29601,"ELEMENT_SET_NO":999,"REV_AT_EPOCH":14129,"BSTAR":0,"MEAN_MOTION_DOT":-5.0e-8,"MEAN_MOTION_DDOT":0},{"OBJECT_NAME":"GPS BIIRM-4 (PRN 15)","OBJECT_ID":"2007-047A","EPOCH":"2026-03-04T00:31:43.627008","MEAN_MOTION":2.00560739,"ECCENTRICITY":0.01636019,"INCLINATION":54.0154,"RA_OF_ASC_NODE":84.3992,"ARG_OF_PERICENTER":85.9536,"MEAN_ANOMALY":275.9759,"EPHEMERIS_TYPE":0,"CLASSIFICATION_TYPE":"U","NORAD_CAT_ID":32260,"ELEMENT_SET_NO":999,"REV_AT_EPOCH":13470,"BSTAR":0,"MEAN_MOTION_DOT":0,"MEAN_MOTION_DDOT":0},{"OBJECT_NAME":"GPS BIIRM-5 (PRN 29)","OBJECT_ID":"2007-062A","EPOCH":"2026-03-04T08:06:38.530080","MEAN_MOTION":2.00553526,"ECCENTRICITY":0.00329248,"INCLINATION":55.1148,"RA_OF_ASC_NODE":278.3662,"ARG_OF_PERICENTER":160.6719,"MEAN_ANOMALY":195.503,"EPHEMERIS_TYPE":0,"CLASSIFICATION_TYPE":"U","NORAD_CAT_ID":32384,"ELEMENT_SET_NO":999,"REV_AT_EPOCH":13340,"BSTAR":0,"MEAN_MOTION_DOT":-1.8e-7,"MEAN_MOTION_DDOT":0},{"OBJECT_NAME":"GPS BIIRM-6 (PRN 07)","OBJECT_ID":"2008-012A","EPOCH":"2026-03-04T10:31:59.001312","MEAN_MOTION":2.00569187,"ECCENTRICITY":0.0206979,"INCLINATION":54.4824,"RA_OF_ASC_NODE":154.1108,"ARG_OF_PERICENTER":246.1865,"MEAN_ANOMALY":111.6633,"EPHEMERIS_TYPE":0,"CLASSIFICATION_TYPE":"U","NORAD_CAT_ID":32711,"ELEMENT_SET_NO":999,"REV_AT_EPOCH":13165,"BSTAR":0,"MEAN_MOTION_DOT":6.0e-8,"MEAN_MOTION_DDOT":0},{"OBJECT_NAME":"GPS BIIRM-8 (PRN 05)","OBJECT_ID":"2009-043A","EPOCH":"2026-03-04T04:14:14.578368","MEAN_MOTION":2.0056044,"ECCENTRICITY":0.00516983,"INCLINATION":56.1481,"RA_OF_ASC_NODE":31.5766,"ARG_OF_PERICENTER":80.7048,"MEAN_ANOMALY":105.8063,"EPHEMERIS_TYPE":0,"CLASSIFICATION_TYPE":"U","NORAD_CAT_ID":35752,"ELEMENT_SET_NO":999,"REV_AT_EPOCH":12125,"BSTAR":0,"MEAN_MOTION_DOT":-8.4e-7,"MEAN_MOTION_DDOT":0},{"OBJECT_NAME":"GPS BIIF-1  (PRN 25)","OBJECT_ID":"2010-022A","EPOCH":"2026-03-04T19:51:45.360576","MEAN_MOTION":2.00557291,"ECCENTRICITY":0.0127348,"INCLINATION":54.2888,"RA_OF_ASC_NODE":212.7639,"ARG_OF_PERICENTER":65.8806,"MEAN_ANOMALY":347.4855,"EPHEMERIS_TYPE":0,"CLASSIFICATION_TYPE":"U","NORAD_CAT_ID":36585,"ELEMENT_SET_NO":999,"REV_AT_EPOCH":11550,"BSTAR":0,"MEAN_MOTION_DOT":2.0e-8,"MEAN_MOTION_DDOT":0},{"OBJECT_NAME":"GPS BIIF-3  (PRN 24)","OBJECT_ID":"2012-053A","EPOCH":"2026-03-04T02:50:27.721824","MEAN_MOTION":2.00565801,"ECCENTRICITY":0.01769354,"INCLINATION":53.5658,"RA_OF_ASC_NODE":147.9052,"ARG_OF_PERICENTER":64.7808,"MEAN_ANOMALY":297.0848,"EPHEMERIS_TYPE":0,"CLASSIFICATION_TYPE":"U","NORAD_CAT_ID":38833,"ELEMENT_SET_NO":999,"REV_AT_EPOCH":9733,"BSTAR":0,"MEAN_MOTION_DOT":6.0e-8,"MEAN_MOTION_DDOT":0},{"OBJECT_NAME":"GPS BIIF-4  (PRN 27)","OBJECT_ID":"2013-023A","EPOCH":"2026-03-01T23:44:03.785280","MEAN_MOTION":2.00564153,"ECCENTRICITY":0.01415529,"INCLINATION":54.5878,"RA_OF_ASC_NODE":273.3391,"ARG_OF_PERICENTER":49.8819,"MEAN_ANOMALY":311.3944,"EPHEMERIS_TYPE":0,"CLASSIFICATION_TYPE":"U","NORAD_CAT_ID":39166,"ELEMENT_SET_NO":999,"REV_AT_EPOCH":9373,"BSTAR":0,"MEAN_MOTION_DOT":6.0e-8,"MEAN_MOTION_DDOT":0},{"OBJECT_NAME":"GPS BIIF-5  (PRN 30)","OBJECT_ID":"2014-008A","EPOCH":"2026-03-03T23:33:39.000096","MEAN_MOTION":2.00553063,"ECCENTRICITY":0.00822912,"INCLINATION":53.6377,"RA_OF_ASC_NODE":153.6123,"ARG_OF_PERICENTER":228.282,"MEAN_ANOMALY":131.0416,"EPHEMERIS_TYPE":0,"CLASSIFICATION_TYPE":"U","NORAD_CAT_ID":39533,"ELEMENT_SET_NO":999,"REV_AT_EPOCH":8757,"BSTAR":0,"MEAN_MOTION_DOT":2.0e-8,"MEAN_MOTION_DDOT":0},{"OBJECT_NAME":"GPS BIIF-6  (PRN 06)","OBJECT_ID":"2014-026A","EPOCH":"2026-03-04T18:12:06.108192","MEAN_MOTION":2.00568672,"ECCENTRICITY":0.0039865,"INCLINATION":56.5463,"RA_OF_ASC_NODE":335.5859,"ARG_OF_PERICENTER":324.5417,"MEAN_ANOMALY":35.2288,"EPHEMERIS_TYPE":0,"CLASSIFICATION_TYPE":"U","NORAD_CAT_ID":39741,"ELEMENT_SET_NO":999,"REV_AT_EPOCH":8644,"BSTAR":0,"MEAN_MOTION_DOT":-9.8e-7,"MEAN_MOTION_DDOT":0}]
